#aV2007 10 16  0  0   .00000000      96 DD+AD WGS84 FIT  NGA
## 1449 172800.00000000   900.00000000 54389  .0000000000000
+   31     1  2  3  4  5  6  7  8  9 10 11 12 13 14 16 17 18
+         19 20 21 22 23 24 25 26 27 28 29 30 31 32  0  0  0
+          0  0  0  0  0  0  0  0  0  0  0  0  0  0  0  0  0
+          0  0  0  0  0  0  0  0  0  0  0  0  0  0  0  0  0
+          0  0  0  0  0  0  0  0  0  0  0  0  0  0  0  0  0
++         0  0  0  0  0  0  0  0  0  0  0  0  0  0  0  0  0
++         0  0  0  0  0  0  0  0  0  0  0  0  0  0  0  0  0
++         0  0  0  0  0  0  0  0  0  0  0  0  0  0  0  0  0
++         0  0  0  0  0  0  0  0  0  0  0  0  0  0  0  0  0
++         0  0  0  0  0  0  0  0  0  0  0  0  0  0  0  0  0
%c cc cc ccc ccc cccc cccc cccc cccc ccccc ccccc ccccc ccccc
%c cc cc ccc ccc cccc cccc cccc cccc ccccc ccccc ccccc ccccc
%f  0.0000000  0.000000000  0.00000000000  0.000000000000000
%f  0.0000000  0.000000000  0.00000000000  0.000000000000000
%i    0    0    0    0      0      0      0      0         0
%i    0    0    0    0      0      0      0      0         0
/*      NGA, ST. LOUIS,MO.                                  
/*   EPHEMERIS COMPUTED FROM  3 DAYS OF DATA                
/* CCCCCCCCCCCCCCCCCCCCCCCCCCCCCCCCCCCCCCCCCCCCCCCCCCCCCCCCC
/* CCCCCCCCCCCCCCCCCCCCCCCCCCCCCCCCCCCCCCCCCCCCCCCCCCCCCCCCC
*  2007 10 16 21  0   .00000000                                                 
P  1  17225.497483  16736.219614  11641.443758    159.975630                    
V  1 -13594.488277  -4910.082430  27605.430390       .027735                    
P  2 -12967.845477 -18554.761100 -14326.288672    144.147552                    
V  2   -203.621501 -17922.867702  23405.620694       .027768                    
P  3  24059.116268  10859.814640  -4541.057851    130.583011                    
V  3  -6237.001173   1765.172833 -30041.081091       .054615                    
P  4  -6031.890940 -25326.734288  -4223.239150    -14.540471                    
V  4   2925.098044  -5718.824697  31012.980259      -.037046                    
P  5 -20870.081886  15938.494238   3164.448329    474.040848                    
V  5    807.907195  -5579.698911  31045.591091       .282896                    
P  6 -13046.547998  11049.817929 -20149.570676    235.436073                    
V  6 -24032.088457 -10220.054299   9838.050859      -.056384                    
P  7 -10776.578419  12342.120058 -20576.770605    -49.748581                    
V  7 -25230.158805  -9610.367769   7293.784442       .144051                    
P  8    712.045589 -25986.234241  -4145.012270   -126.717805                    
V  8   2946.399042   4970.924016 -31908.665991      -.014291                    
P  9 -14383.958031   3449.731963  21445.360738     92.388852                    
V  9  -4942.196498 -28262.843515   1376.531712       .016578                    
P 10 -16503.061479  -5359.443036 -20314.763694   -110.141006                    
V 10  20116.724972 -15574.623716 -11987.929106      -.136262                    
P 11  15262.648485  -6635.074310  20561.436935     24.973509                    
V 11   8503.750903  25341.978766   2169.706199       .004581                    
P 12 -23029.987571  10171.016874   8450.824762   -345.078531                    
V 12   6867.732717  -8511.632404  29336.540662      -.013090                    
P 13  11925.580827  -9943.535251 -21650.306217    214.321590                    
V 13  24440.092335  11839.116573   8085.930362       .027582                    
P 14   6884.786799  16998.215890  19342.670216   -326.339281                    
V 14 -22506.918756  -9086.741211  15978.513217       .024506                    
P 16  11974.577163   9758.117068 -21551.283075    119.963591                    
V 16 -21933.448513  16599.878206  -4495.195814       .020273                    
P 17  -5317.765346 -17195.347275  19594.756079     51.563207                    
V 17  23264.533985   8677.704068  13802.956711      -.010929                    
P 18 -15498.910389  19194.306260   9520.816797   -230.897167                    
V 18 -11564.666765   4390.132830 -28510.048153       .020234                    
P 19  24752.167565   6332.782455   7621.911477      1.608398                    
V 19   7368.925163   6567.898044 -29592.772842       .022285                    
P 20  22544.316727 -12950.413717   5236.144369    127.795519                    
V 20  -3423.436860   6637.808933  30601.519084      -.006397                    
P 21  -7436.487021  21529.367036 -13006.334699     77.506034                    
V 21  -4931.186716 -16636.496024 -25027.151428      -.003360                    
P 22  -3357.323783  18671.029090  18735.183859    200.656936                    
V 22 -20237.947650  12066.911610 -15831.993149       .010459                    
P 23  21460.968529  -2596.634507 -15655.989079    300.516037                    
V 23  17495.634459   9053.403621  22355.801977       .035779                    
P 24 -12939.422467  12292.369541 -19566.047093     38.815093                    
V 24  -3104.186578 -25033.240700 -13253.922111       .030271                    
P 25   8443.798988 -17853.520367 -17469.315737    462.736630                    
V 25   6683.151601  21908.104507 -18624.768147       .074374                    
P 26 -24990.856936  -8867.713047   3818.260243     63.984952                    
V 26  -4265.812741  -3469.172437 -31615.785022       .128243                    
P 27   4266.027333 -22707.892079 -12256.128209    141.694880                    
V 27   5621.601409  15905.112686 -26339.240728       .024047                    
P 28   6190.219987 -19351.247921  17266.296132     -8.724265                    
V 28  18391.211935 -11076.127925 -19741.017844      -.007210                    
P 29 -24712.965955 -10321.976888    127.805362      6.052658                    
V 29    681.920418  -1407.695041 -32110.695554       .000365                    
P 30 -18771.254861  18489.664075  -3203.362187     49.208189                    
V 30  -4941.868384   -190.984856  31157.653711       .012320                    
P 31   7840.469959  24421.208063  -6546.133312      5.844168                    
V 31  -1513.501175   8866.122398  30411.691072      -.013638                    
P 32   7280.610418  13357.963422  22244.510879    102.736276                    
V 32 -22828.727017  14568.408759  -1166.839198       .149103                    
EOF
